QIANFAN-57              
1 62787U 25016C   25200.54693332  .00000131  00000+0  18344-3 0  9995
2 62787  88.9866 118.2602 0017284  54.2904 305.9852 13.50958499 27467
QIANFAN-58              
1 62788U 25016D   25200.59222799  .00000122  00000+0  17020-3 0  9996
2 62788  88.9836 118.1327 0016043  49.7842 310.4710 13.50951978 27515
QIANFAN-59              
1 62789U 25016E   25200.53060457  .00000118  00000+0  16473-3 0  9998
2 62789  88.9860 118.1748 0016996  52.5681 307.7014 13.50956340 27503
QIANFAN-60              
1 62790U 25016F   25200.52224439  .00000115  00000+0  15996-3 0  9997
2 62790  88.9841 118.1830 0017437  50.4885 309.7805 13.50964667 27488
QIANFAN-61              
1 62791U 25016G   25200.53471006  .00000125  00000+0  17493-3 0  9998
2 62791  88.9909 118.2400 0016848  49.4697 310.7918 13.50954286 27508
QIANFAN-62              
1 62792U 25016H   25200.53863851  .00000091  00000+0  12248-3 0  9997
2 62792  88.9856 118.1871 0018260  49.4613 310.8125 13.50953171 27490
QIANFAN-63              
1 62793U 25016J   25200.55099320  .00000119  00000+0  16545-3 0  9997
2 62793  88.9862 118.1248 0018120  53.4689 306.8127 13.50959224 27536
QIANFAN-64              
1 62794U 25016K   25200.54276858  .00000116  00000+0  16089-3 0  9990
2 62794  88.9848 118.1253 0015865  48.4492 311.8017 13.50958910 27520
